{"type": "FeatureCollection", "features": [ {"type": "Feature", "properties": {"norad_id": 29973, "name": "FENGYUN 1C DEB", "group": "fengyun-1c-debris", "lat": -74.76341189012776, "lon": 25.716043558713856, "alt_km": 913.2038687165677, "timestamp": "2025-12-16T10:53:45.742265+00:00", "meta": {"OBJECT_NAME": "FENGYUN 1C DEB", "OBJECT_ID": "1999-025KX", "EPOCH": "2025-12-15T11:58:24.367296", "MEAN_MOTION": 14.06542071, "ECCENTRICITY": 0.00593657, "INCLINATION": 98.8425, "RA_OF_ASC_NODE": 349.9278, "ARG_OF_PERICENTER": 141.2586, "MEAN_ANOMALY": 347.2572, "EPHEMERIS_TYPE": 0, "CLASSIFICATION_TYPE": "U", "NORAD_CAT_ID": 29973, "ELEMENT_SET_NO": 999, "REV_AT_EPOCH": 96757, "BSTAR": 0.00052851136, "MEAN_MOTION_DOT": 8.46e-06, "MEAN_MOTION_DDOT": 0}, "tle": {"line1": "1 29973U 99025KX  25349.49889314  .00000846  00000+0  52851-3 0  9995", "line2": "2 29973  98.8425 349.9278 0059365 141.2586 347.2572 14.06542071967579"}}, "geometry": {"type": "Point", "coordinates": [25.716043558713856, -74.76341189012776]}}, {"type": "Feature", "properties": {"norad_id": 29974, "name": "FENGYUN 1C DEB", "group": "fengyun-1c-debris", "lat": -69.97520804176493, "lon": -130.83000971329594, "alt_km": 883.627053268383, "timestamp": "2025-12-16T10:53:45.742275+00:00", "meta": {"OBJECT_NAME": "FENGYUN 1C DEB", "OBJECT_ID": "1999-025KY", "EPOCH": "2025-12-15T19:00:07.937856", "MEAN_MOTION": 14.14861777, "ECCENTRICITY": 0.00465323, "INCLINATION": 98.894, "RA_OF_ASC_NODE": 73.9551, "ARG_OF_PERICENTER": 73.5351, "MEAN_ANOMALY": 47.158, "EPHEMERIS_TYPE": 0, "CLASSIFICATION_TYPE": "U", "NORAD_CAT_ID": 29974, "ELEMENT_SET_NO": 999, "REV_AT_EPOCH": 96968, "BSTAR": 0.00085724534, "MEAN_MOTION_DOT": 1.628e-05, "MEAN_MOTION_DDOT": 0}, "tle": {"line1": "1 29974U 99025KY  25349.79175854  .00001628  00000+0  85725-3 0  9991", "line2": "2 29974  98.8940  73.9551 0046532  73.5351  47.1580 14.14861777969684"}}, "geometry": {"type": "Point", "coordinates": [-130.83000971329594, -69.97520804176493]}}, {"type": "Feature", "properties": {"norad_id": 29975, "name": "FENGYUN 1C DEB", "group": "fengyun-1c-debris", "lat": 23.959557661830733, "lon": 27.389896037258673, "alt_km": 822.6706536150868, "timestamp": "2025-12-16T10:53:45.742286+00:00", "meta": {"OBJECT_NAME": "FENGYUN 1C DEB", "OBJECT_ID": "1999-025KZ", "EPOCH": "2025-12-15T21:53:08.478816", "MEAN_MOTION": 13.98026242, "ECCENTRICITY": 0.01133817, "INCLINATION": 99.339, "RA_OF_ASC_NODE": 31.0321, "ARG_OF_PERICENTER": 5.1102, "MEAN_ANOMALY": 171.9927, "EPHEMERIS_TYPE": 0, "CLASSIFICATION_TYPE": "U", "NORAD_CAT_ID": 29975, "ELEMENT_SET_NO": 999, "REV_AT_EPOCH": 96481, "BSTAR": 5.5122436e-05, "MEAN_MOTION_DOT": 3.6e-07, "MEAN_MOTION_DDOT": 0}, "tle": {"line1": "1 29975U 99025KZ  25349.91190369  .00000036  00000+0  55122-4 0  9995", "line2": "2 29975  99.3390  31.0321 0113381   5.1102 171.9927 13.98026242964814"}}, "geometry": {"type": "Point", "coordinates": [27.389896037258673, 23.959557661830733]}}, {"type": "Feature", "properties": {"norad_id": 29976, "name": "FENGYUN 1C DEB", "group": "fengyun-1c-debris", "lat": -19.879950973417856, "lon": 164.40788142286686, "alt_km": 734.2286756310141, "timestamp": "2025-12-16T10:53:45.742296+00:00", "meta": {"OBJECT_NAME": "FENGYUN 1C DEB", "OBJECT_ID": "1999-025LA", "EPOCH": "2025-12-15T22:12:16.722720", "MEAN_MOTION": 13.98112122, "ECCENTRICITY": 0.02674477, "INCLINATION": 98.918, "RA_OF_ASC_NODE": 347.1482, "ARG_OF_PERICENTER": 230.6677, "MEAN_ANOMALY": 190.6829, "EPHEMERIS_TYPE": 0, "CLASSIFICATION_TYPE": "U", "NORAD_CAT_ID": 29976, "ELEMENT_SET_NO": 999, "REV_AT_EPOCH": 96381, "BSTAR": 0.00032326598, "MEAN_MOTION_DOT": 5.79e-06, "MEAN_MOTION_DDOT": 0}, "tle": {"line1": "1 29976U 99025LA  25349.92519355  .00000579  00000+0  32327-3 0  9990", "line2": "2 29976  98.9180 347.1482 0267447 230.6677 190.6829 13.98112122963812"}}, "geometry": {"type": "Point", "coordinates": [164.40788142286686, -19.879950973417856]}}, {"type": "Feature", "properties": {"norad_id": 29977, "name": "FENGYUN 1C DEB", "group": "fengyun-1c-debris", "lat": -45.04741411192724, "lon": 23.720921832140895, "alt_km": 795.6560054818356, "timestamp": "2025-12-16T10:53:45.742307+00:00", "meta": {"OBJECT_NAME": "FENGYUN 1C DEB", "OBJECT_ID": "1999-025LB", "EPOCH": "2025-12-15T02:05:24.079200", "MEAN_MOTION": 14.0509794, "ECCENTRICITY": 0.0128352, "INCLINATION": 98.3968, "RA_OF_ASC_NODE": 210.9629, "ARG_OF_PERICENTER": 250.2626, "MEAN_ANOMALY": 265.3537, "EPHEMERIS_TYPE": 0, "CLASSIFICATION_TYPE": "U", "NORAD_CAT_ID": 29977, "ELEMENT_SET_NO": 999, "REV_AT_EPOCH": 96393, "BSTAR": 0.001211704, "MEAN_MOTION_DOT": 2.064e-05, "MEAN_MOTION_DDOT": 0}, "tle": {"line1": "1 29977U 99025LB  25349.08708425  .00002064  00000+0  12117-2 0  9991", "line2": "2 29977  98.3968 210.9629 0128352 250.2626 265.3537 14.05097940963932"}}, "geometry": {"type": "Point", "coordinates": [23.720921832140895, -45.04741411192724]}}, {"type": "Feature", "properties": {"norad_id": 29978, "name": "FENGYUN 1C DEB", "group": "fengyun-1c-debris", "lat": -7.778006281442449, "lon": -140.408831411691, "alt_km": 957.7303931219813, "timestamp": "2025-12-16T10:53:45.742317+00:00", "meta": {"OBJECT_NAME": "FENGYUN 1C DEB", "OBJECT_ID": "1999-025LC", "EPOCH": "2025-12-15T15:48:10.351296", "MEAN_MOTION": 13.95907259, "ECCENTRICITY": 0.00766174, "INCLINATION": 99.0609, "RA_OF_ASC_NODE": 40.0577, "ARG_OF_PERICENTER": 44.3952, "MEAN_ANOMALY": 107.2021, "EPHEMERIS_TYPE": 0, "CLASSIFICATION_TYPE": "U", "NORAD_CAT_ID": 29978, "ELEMENT_SET_NO": 999, "REV_AT_EPOCH": 96357, "BSTAR": 9.4614389e-05, "MEAN_MOTION_DOT": 8.9e-07, "MEAN_MOTION_DDOT": 0}, "tle": {"line1": "1 29978U 99025LC  25349.65845314  .00000089  00000+0  94614-4 0  9993", "line2": "2 29978  99.0609  40.0577 0076617  44.3952 107.2021 13.95907259963570"}}, "geometry": {"type": "Point", "coordinates": [-140.408831411691, -7.778006281442449]}}, {"type": "Feature", "properties": {"norad_id": 29979, "name": "FENGYUN 1C DEB", "group": "fengyun-1c-debris", "lat": -63.926796143121976, "lon": 175.9866204053972, "alt_km": 815.7662088614507, "timestamp": "2025-12-16T10:53:45.742327+00:00", "meta": {"OBJECT_NAME": "FENGYUN 1C DEB", "OBJECT_ID": "1999-025LD", "EPOCH": "2025-12-15T08:33:51.147936", "MEAN_MOTION": 14.25969061, "ECCENTRICITY": 0.01077038, "INCLINATION": 98.3704, "RA_OF_ASC_NODE": 12.4498, "ARG_OF_PERICENTER": 155.2879, "MEAN_ANOMALY": 219.606, "EPHEMERIS_TYPE": 0, "CLASSIFICATION_TYPE": "U", "NORAD_CAT_ID": 29979, "ELEMENT_SET_NO": 999, "REV_AT_EPOCH": 98111, "BSTAR": 0.00044275239, "MEAN_MOTION_DOT": 1.082e-05, "MEAN_MOTION_DDOT": 0}, "tle": {"line1": "1 29979U 99025LD  25349.35684199  .00001082  00000+0  44275-3 0  9994", "line2": "2 29979  98.3704  12.4498 0107703 155.2879 219.6060 14.25969061981119"}}, "geometry": {"type": "Point", "coordinates": [175.9866204053972, -63.926796143121976]}}, {"type": "Feature", "properties": {"norad_id": 29980, "name": "FENGYUN 1C DEB", "group": "fengyun-1c-debris", "lat": -81.30506672932032, "lon": -120.90165424483311, "alt_km": 827.0788271244728, "timestamp": "2025-12-16T10:53:45.742337+00:00", "meta": {"OBJECT_NAME": "FENGYUN 1C DEB", "OBJECT_ID": "1999-025LE", "EPOCH": "2025-12-15T18:17:32.650080", "MEAN_MOTION": 14.06318026, "ECCENTRICITY": 0.00869698, "INCLINATION": 98.5514, "RA_OF_ASC_NODE": 158.7524, "ARG_OF_PERICENTER": 239.1813, "MEAN_ANOMALY": 131.2707, "EPHEMERIS_TYPE": 0, "CLASSIFICATION_TYPE": "U", "NORAD_CAT_ID": 29980, "ELEMENT_SET_NO": 999, "REV_AT_EPOCH": 97035, "BSTAR": 0.00033416795, "MEAN_MOTION_DOT": 5.29e-06, "MEAN_MOTION_DDOT": 0}, "tle": {"line1": "1 29980U 99025LE  25349.76218345  .00000529  00000+0  33417-3 0  9998", "line2": "2 29980  98.5514 158.7524 0086969 239.1813 131.2707 14.06318026970355"}}, "geometry": {"type": "Point", "coordinates": [-120.90165424483311, -81.30506672932032]}}, {"type": "Feature", "properties": {"norad_id": 29982, "name": "FENGYUN 1C DEB", "group": "fengyun-1c-debris", "lat": 45.787181153719054, "lon": 162.4616449522777, "alt_km": 721.1885399950652, "timestamp": "2025-12-16T10:53:45.742347+00:00", "meta": {"OBJECT_NAME": "FENGYUN 1C DEB", "OBJECT_ID": "1999-025LG", "EPOCH": "2025-12-15T18:21:55.270656", "MEAN_MOTION": 14.66904796, "ECCENTRICITY": 0.01217624, "INCLINATION": 99.4015, "RA_OF_ASC_NODE": 171.4781, "ARG_OF_PERICENTER": 279.0376, "MEAN_ANOMALY": 91.304, "EPHEMERIS_TYPE": 0, "CLASSIFICATION_TYPE": "U", "NORAD_CAT_ID": 29982, "ELEMENT_SET_NO": 999, "REV_AT_EPOCH": 328, "BSTAR": 0.00048107477, "MEAN_MOTION_DOT": 2.934e-05, "MEAN_MOTION_DDOT": 0}, "tle": {"line1": "1 29982U 99025LG  25349.76522304  .00002934  00000+0  48107-3 0  9997", "line2": "2 29982  99.4015 171.4781 0121762 279.0376  91.3040 14.66904796  3284"}}, "geometry": {"type": "Point", "coordinates": [162.4616449522777, 45.787181153719054]}}, {"type": "Feature", "properties": {"norad_id": 29985, "name": "FENGYUN 1C DEB", "group": "fengyun-1c-debris", "lat": -79.57654329998905, "lon": 128.95175798424756, "alt_km": 857.1947244294915, "timestamp": "2025-12-16T10:53:45.742357+00:00", "meta": {"OBJECT_NAME": "FENGYUN 1C DEB", "OBJECT_ID": "1999-025LK", "EPOCH": "2025-12-15T22:16:57.183168", "MEAN_MOTION": 14.103245, "ECCENTRICITY": 0.00282694, "INCLINATION": 98.7104, "RA_OF_ASC_NODE": 4.8888, "ARG_OF_PERICENTER": 199.7967, "MEAN_ANOMALY": 277.2786, "EPHEMERIS_TYPE": 0, "CLASSIFICATION_TYPE": "U", "NORAD_CAT_ID": 29985, "ELEMENT_SET_NO": 999, "REV_AT_EPOCH": 97393, "BSTAR": 9.7940006e-05, "MEAN_MOTION_DOT": 1.32e-06, "MEAN_MOTION_DDOT": 0}, "tle": {"line1": "1 29985U 99025LK  25349.92843962  .00000132  00000+0  97940-4 0  9992", "line2": "2 29985  98.7104   4.8888 0028269 199.7967 277.2786 14.10324500973935"}}, "geometry": {"type": "Point", "coordinates": [128.95175798424756, -79.57654329998905]}}]}